[{"OBJECT_NAME":"ALCOMSAT 1","OBJECT_ID":"2017-078A","EPOCH":"2024-01-25T08:47:42.449856","MEAN_MOTION":1.00270313,"ECCENTRICITY":0.000287,"INCLINATION":0.0566,"RA_OF_ASC_NODE":236.4797,"ARG_OF_PERICENTER":48.2682,"MEAN_ANOMALY":306.5342,"EPHEMERIS_TYPE":0,"CLASSIFICATION_TYPE":"U","NORAD_CAT_ID":43039,"ELEMENT_SET_NO":999,"REV_AT_EPOCH":2253,"BSTAR":0,"MEAN_MOTION_DOT":-1.85e-6,"MEAN_MOTION_DDOT":0},{"OBJECT_NAME":"GSAT0215 (GALILEO 19)","OBJECT_ID":"2017-079A","EPOCH":"2024-01-25T00:11:11.810976","MEAN_MOTION":1.70474107,"ECCENTRICITY":0.0001547,"INCLINATION":55.4114,"RA_OF_ASC_NODE":245.5689,"ARG_OF_PERICENTER":11.731,"MEAN_ANOMALY":348.3517,"EPHEMERIS_TYPE":0,"CLASSIFICATION_TYPE":"U","NORAD_CAT_ID":43055,"ELEMENT_SET_NO":999,"REV_AT_EPOCH":3808,"BSTAR":0,"MEAN_MOTION_DOT":5.5e-7,"MEAN_MOTION_DDOT":0},{"OBJECT_NAME":"GSAT0217 (GALILEO 21)","OBJECT_ID":"2017-079C","EPOCH":"2024-01-22T00:00:42.469920","MEAN_MOTION":1.7047405,"ECCENTRICITY":0.000285,"INCLINATION":55.41,"RA_OF_ASC_NODE":245.6506,"ARG_OF_PERICENTER":347.6298,"MEAN_ANOMALY":12.4436,"EPHEMERIS_TYPE":0,"CLASSIFICATION_TYPE":"U","NORAD_CAT_ID":43057,"ELEMENT_SET_NO":999,"REV_AT_EPOCH":3803,"BSTAR":0,"MEAN_MOTION_DOT":6.0e-7,"MEAN_MOTION_DDOT":0},{"OBJECT_NAME":"GSAT0218 (GALILEO 22)","OBJECT_ID":"2017-079D","EPOCH":"2024-01-22T19:22:13.829664","MEAN_MOTION":1.7047417,"ECCENTRICITY":0.0002681,"INCLINATION":55.4099,"RA_OF_ASC_NODE":245.6259,"ARG_OF_PERICENTER":315.2151,"MEAN_ANOMALY":44.8451,"EPHEMERIS_TYPE":0,"CLASSIFICATION_TYPE":"U","NORAD_CAT_ID":43058,"ELEMENT_SET_NO":999,"REV_AT_EPOCH":3807,"BSTAR":0,"MEAN_MOTION_DOT":6.0e-7,"MEAN_MOTION_DDOT":0},{"OBJECT_NAME":"GCOM-C (SHIKISAI)","OBJECT_ID":"2017-082A","EPOCH":"2024-01-25T14:12:52.705152","MEAN_MOTION":14.27287781,"ECCENTRICITY":0.0001097,"INCLINATION":98.5858,"RA_OF_ASC_NODE":100.3593,"ARG_OF_PERICENTER":98.039,"MEAN_ANOMALY":262.0915,"EPHEMERIS_TYPE":0,"CLASSIFICATION_TYPE":"U","NORAD_CAT_ID":43065,"ELEMENT_SET_NO":999,"REV_AT_EPOCH":31732,"BSTAR":0.00015702,"MEAN_MOTION_DOT":3.41e-6,"MEAN_MOTION_DDOT":0},{"OBJECT_NAME":"IRIDIUM 135","OBJECT_ID":"2017-083A","EPOCH":"2024-01-25T08:53:42.900288","MEAN_MOTION":14.34214673,"ECCENTRICITY":0.0002224,"INCLINATION":86.4,"RA_OF_ASC_NODE":327.2148,"ARG_OF_PERICENTER":94.8233,"MEAN_ANOMALY":265.3217,"EPHEMERIS_TYPE":0,"CLASSIFICATION_TYPE":"U","NORAD_CAT_ID":43070,"ELEMENT_SET_NO":999,"REV_AT_EPOCH":31890,"BSTAR":0.00023723,"MEAN_MOTION_DOT":6.84e-6,"MEAN_MOTION_DDOT":0},{"OBJECT_NAME":"IRIDIUM 138","OBJECT_ID":"2017-083B","EPOCH":"2024-01-25T07:49:47.142912","MEAN_MOTION":14.3421732,"ECCENTRICITY":0.000217,"INCLINATION":86.3987,"RA_OF_ASC_NODE":326.9685,"ARG_OF_PERICENTER":80.6099,"MEAN_ANOMALY":279.5342,"EPHEMERIS_TYPE":0,"CLASSIFICATION_TYPE":"U","NORAD_CAT_ID":43071,"ELEMENT_SET_NO":999,"REV_AT_EPOCH":31888,"BSTAR":1.9383e-5,"MEAN_MOTION_DOT":7.4e-7,"MEAN_MOTION_DDOT":0},{"OBJECT_NAME":"IRIDIUM 116","OBJECT_ID":"2017-083C","EPOCH":"2024-01-25T08:44:34.528992","MEAN_MOTION":14.34216596,"ECCENTRICITY":0.0002167,"INCLINATION":86.3996,"RA_OF_ASC_NODE":327.2133,"ARG_OF_PERICENTER":89.0059,"MEAN_ANOMALY":271.1385,"EPHEMERIS_TYPE":0,"CLASSIFICATION_TYPE":"U","NORAD_CAT_ID":43072,"ELEMENT_SET_NO":999,"REV_AT_EPOCH":31892,"BSTAR":0.00014765,"MEAN_MOTION_DOT":4.33e-6,"MEAN_MOTION_DDOT":0},{"OBJECT_NAME":"IRIDIUM 130","OBJECT_ID":"2017-083D","EPOCH":"2024-01-25T07:58:55.106400","MEAN_MOTION":14.34218412,"ECCENTRICITY":0.0002029,"INCLINATION":86.4009,"RA_OF_ASC_NODE":327.4172,"ARG_OF_PERICENTER":85.6306,"MEAN_ANOMALY":274.5121,"EPHEMERIS_TYPE":0,"CLASSIFICATION_TYPE":"U","NORAD_CAT_ID":43073,"ELEMENT_SET_NO":999,"REV_AT_EPOCH":31886,"BSTAR":4.823e-5,"MEAN_MOTION_DOT":1.55e-6,"MEAN_MOTION_DDOT":0},{"OBJECT_NAME":"IRIDIUM 151","OBJECT_ID":"2017-083E","EPOCH":"2024-01-25T09:02:50.986464","MEAN_MOTION":14.3422095,"ECCENTRICITY":0.0002446,"INCLINATION":86.3999,"RA_OF_ASC_NODE":327.2464,"ARG_OF_PERICENTER":84.5727,"MEAN_ANOMALY":275.5748,"EPHEMERIS_TYPE":0,"CLASSIFICATION_TYPE":"U","NORAD_CAT_ID":43074,"ELEMENT_SET_NO":999,"REV_AT_EPOCH":31889,"BSTAR":0.00019404,"MEAN_MOTION_DOT":5.63e-6,"MEAN_MOTION_DDOT":0},{"OBJECT_NAME":"IRIDIUM 134","OBJECT_ID":"2017-083F","EPOCH":"2024-01-25T08:17:10.839840","MEAN_MOTION":14.34217407,"ECCENTRICITY":0.0001929,"INCLINATION":86.4,"RA_OF_ASC_NODE":327.2557,"ARG_OF_PERICENTER":85.7103,"MEAN_ANOMALY":274.4313,"EPHEMERIS_TYPE":0,"CLASSIFICATION_TYPE":"U","NORAD_CAT_ID":43075,"ELEMENT_SET_NO":999,"REV_AT_EPOCH":31885,"BSTAR":8.9232e-5,"MEAN_MOTION_DOT":2.7e-6,"MEAN_MOTION_DDOT":0},{"OBJECT_NAME":"IRIDIUM 141","OBJECT_ID":"2017-083H","EPOCH":"2024-01-25T08:26:18.449088","MEAN_MOTION":14.342161,"ECCENTRICITY":0.000216,"INCLINATION":86.3998,"RA_OF_ASC_NODE":327.2086,"ARG_OF_PERICENTER":84.1226,"MEAN_ANOMALY":276.0216,"EPHEMERIS_TYPE":0,"CLASSIFICATION_TYPE":"U","NORAD_CAT_ID":43077,"ELEMENT_SET_NO":999,"REV_AT_EPOCH":31892,"BSTAR":0.0002114,"MEAN_MOTION_DOT":6.12e-6,"MEAN_MOTION_DDOT":0},{"OBJECT_NAME":"IRIDIUM 153","OBJECT_ID":"2017-083J","EPOCH":"2024-01-25T07:17:27.264192","MEAN_MOTION":14.34216979,"ECCENTRICITY":0.000236,"INCLINATION":86.3977,"RA_OF_ASC_NODE":295.6808,"ARG_OF_PERICENTER":75.6626,"MEAN_ANOMALY":284.4832,"EPHEMERIS_TYPE":0,"CLASSIFICATION_TYPE":"U","NORAD_CAT_ID":43078,"ELEMENT_SET_NO":999,"REV_AT_EPOCH":32002,"BSTAR":4.7134e-5,"MEAN_MOTION_DOT":1.52e-6,"MEAN_MOTION_DDOT":0}]
